{
  "type": "FeatureCollection",
  "features": [
    {
      "type": "Feature",
      "properties": {
        "norad_id": 44873,
        "name": "CSG-1",
        "group": "resource",
        "lat": -41.66834374831407,
        "lon": 169.80087360655875,
        "alt_km": 629.7657074025856,
        "timestamp": "2025-12-07T07:31:35.960741+00:00",
        "meta_object_name": "CSG-1",
        "meta_object_id": "2019-092A",
        "meta_epoch": "2025-12-06T21:59:41.939232",
        "meta_mean_motion": 14.8215152,
        "meta_eccentricity": 0.00014628,
        "meta_inclination": 97.8813,
        "meta_ra_of_asc_node": 162.3283,
        "meta_arg_of_pericenter": 86.1772,
        "meta_mean_anomaly": 273.9608,
        "meta_ephemeris_type": 0,
        "meta_classification_type": "U",
        "meta_norad_cat_id": 44873,
        "meta_element_set_no": 999,
        "meta_rev_at_epoch": 32299,
        "meta_bstar": 0.00015222153,
        "meta_mean_motion_dot": 1.16e-05,
        "meta_mean_motion_ddot": 0,
        "tle_line1": "1 44873U 19092A   25340.91645763  .00001160  00000+0  15222-3 0  9994",
        "tle_line2": "2 44873  97.8813 162.3283 0001462  86.1772 273.9608 14.82151520322992"
      },
      "geometry": {
        "type": "Point",
        "coordinates": [
          169.80087360655875,
          -41.66834374831407
        ]
      }
    },
    {
      "type": "Feature",
      "properties": {
        "norad_id": 46277,
        "name": "NEMO-HD",
        "group": "resource",
        "lat": 63.14574309144566,
        "lon": 25.97786924957106,
        "alt_km": 438.02356911722745,
        "timestamp": "2025-12-07T07:31:35.960751+00:00",
        "meta_object_name": "NEMO-HD",
        "meta_object_id": "2020-061F",
        "meta_epoch": "2025-12-06T21:53:37.578336",
        "meta_mean_motion": 15.40149485,
        "meta_eccentricity": 0.0002185,
        "meta_inclination": 97.2217,
        "meta_ra_of_asc_node": 40.0852,
        "meta_arg_of_pericenter": 63.5057,
        "meta_mean_anomaly": 296.6414,
        "meta_ephemeris_type": 0,
        "meta_classification_type": "U",
        "meta_norad_cat_id": 46277,
        "meta_element_set_no": 999,
        "meta_rev_at_epoch": 29234,
        "meta_bstar": 0.00038600404,
        "meta_mean_motion_dot": 0.00015408,
        "meta_mean_motion_ddot": 0,
        "tle_line1": "1 46277U 20061F   25340.91224049  .00015408  00000+0  38600-3 0  9997",
        "tle_line2": "2 46277  97.2217  40.0852 0002185  63.5057 296.6414 15.40149485292340"
      },
      "geometry": {
        "type": "Point",
        "coordinates": [
          25.97786924957106,
          63.14574309144566
        ]
      }
    },
    {
      "type": "Feature",
      "properties": {
        "norad_id": 46984,
        "name": "SENTINEL-6A",
        "group": "resource",
        "lat": -64.21004856633984,
        "lon": 106.61954036918875,
        "alt_km": 1338.2008671826643,
        "timestamp": "2025-12-07T07:31:35.960761+00:00",
        "meta_object_name": "SENTINEL-6A",
        "meta_object_id": "2020-086A",
        "meta_epoch": "2025-12-06T22:34:30.091584",
        "meta_mean_motion": 12.80930313,
        "meta_eccentricity": 0.00077413,
        "meta_inclination": 66.0392,
        "meta_ra_of_asc_node": 174.3533,
        "meta_arg_of_pericenter": 269.2083,
        "meta_mean_anomaly": 90.8045,
        "meta_ephemeris_type": 0,
        "meta_classification_type": "U",
        "meta_norad_cat_id": 46984,
        "meta_element_set_no": 999,
        "meta_rev_at_epoch": 23570,
        "meta_bstar": 6.0615215e-05,
        "meta_mean_motion_dot": -4.7e-07,
        "meta_mean_motion_ddot": 0,
        "tle_line1": "1 46984U 20086A   25340.94062606 -.00000047  00000+0  60615-4 0  9997",
        "tle_line2": "2 46984  66.0392 174.3533 0007741 269.2083  90.8045 12.80930313235707"
      },
      "geometry": {
        "type": "Point",
        "coordinates": [
          106.61954036918875,
          -64.21004856633984
        ]
      }
    },
    {
      "type": "Feature",
      "properties": {
        "norad_id": 48079,
        "name": "GAOFEN-12 02",
        "group": "resource",
        "lat": -66.0696944838512,
        "lon": 136.90694049660578,
        "alt_km": 636.1762777312388,
        "timestamp": "2025-12-07T07:31:35.960771+00:00",
        "meta_object_name": "GAOFEN-12 02",
        "meta_object_id": "2021-026A",
        "meta_epoch": "2025-12-06T22:18:13.922784",
        "meta_mean_motion": 14.80664343,
        "meta_eccentricity": 0.0003397,
        "meta_inclination": 97.9848,
        "meta_ra_of_asc_node": 334.9638,
        "meta_arg_of_pericenter": 112.5658,
        "meta_mean_anomaly": 247.5914,
        "meta_ephemeris_type": 0,
        "meta_classification_type": "U",
        "meta_norad_cat_id": 48079,
        "meta_element_set_no": 999,
        "meta_rev_at_epoch": 25331,
        "meta_bstar": 0.00013441732,
        "meta_mean_motion_dot": 9.8e-06,
        "meta_mean_motion_ddot": 0,
        "tle_line1": "1 48079U 21026A   25340.92932781  .00000980  00000+0  13442-3 0  9997",
        "tle_line2": "2 48079  97.9848 334.9638 0003397 112.5658 247.5914 14.80664343253316"
      },
      "geometry": {
        "type": "Point",
        "coordinates": [
          136.90694049660578,
          -66.0696944838512
        ]
      }
    },
    {
      "type": "Feature",
      "properties": {
        "norad_id": 48268,
        "name": "PLEIADES NEO 3",
        "group": "resource",
        "lat": -64.14433436573358,
        "lon": 70.47106519697634,
        "alt_km": 632.1320327089652,
        "timestamp": "2025-12-07T07:31:35.960781+00:00",
        "meta_object_name": "PLEIADES NEO 3",
        "meta_object_id": "2021-034A",
        "meta_epoch": "2025-12-06T22:05:46.818528",
        "meta_mean_motion": 14.8167615,
        "meta_eccentricity": 0.00013443,
        "meta_inclination": 97.8949,
        "meta_ra_of_asc_node": 53.445,
        "meta_arg_of_pericenter": 94.8131,
        "meta_mean_anomaly": 265.3235,
        "meta_ephemeris_type": 0,
        "meta_classification_type": "U",
        "meta_norad_cat_id": 48268,
        "meta_element_set_no": 999,
        "meta_rev_at_epoch": 24918,
        "meta_bstar": 2.712307e-05,
        "meta_mean_motion_dot": 1.61e-06,
        "meta_mean_motion_ddot": 0,
        "tle_line1": "1 48268U 21034A   25340.92068077  .00000161  00000+0  27123-4 0  9997",
        "tle_line2": "2 48268  97.8949  53.4450 0001344  94.8131 265.3235 14.81676150249184"
      },
      "geometry": {
        "type": "Point",
        "coordinates": [
          70.47106519697634,
          -64.14433436573358
        ]
      }
    },
    {
      "type": "Feature",
      "properties": {
        "norad_id": 49070,
        "name": "PLEIADES NEO 4",
        "group": "resource",
        "lat": 63.99090267415973,
        "lon": -109.64918598261951,
        "alt_km": 616.9810554207852,
        "timestamp": "2025-12-07T07:31:35.960791+00:00",
        "meta_object_name": "PLEIADES NEO 4",
        "meta_object_id": "2021-073E",
        "meta_epoch": "2025-12-06T21:17:08.524608",
        "meta_mean_motion": 14.81672746,
        "meta_eccentricity": 0.00012707,
        "meta_inclination": 97.895,
        "meta_ra_of_asc_node": 53.4074,
        "meta_arg_of_pericenter": 95.5132,
        "meta_mean_anomaly": 264.6226,
        "meta_ephemeris_type": 0,
        "meta_classification_type": "U",
        "meta_norad_cat_id": 49070,
        "meta_element_set_no": 999,
        "meta_rev_at_epoch": 23289,
        "meta_bstar": -4.120072e-06,
        "meta_mean_motion_dot": -8.4e-07,
        "meta_mean_motion_ddot": 0,
        "tle_line1": "1 49070U 21073E   25340.88690422 -.00000084  00000+0 -41201-5 0  9992",
        "tle_line2": "2 49070  97.8950  53.4074 0001270  95.5132 264.6226 14.81672746232896"
      },
      "geometry": {
        "type": "Point",
        "coordinates": [
          -109.64918598261951,
          63.99090267415973
        ]
      }
    },
    {
      "type": "Feature",
      "properties": {
        "norad_id": 49260,
        "name": "LANDSAT 9",
        "group": "resource",
        "lat": -68.85795097834495,
        "lon": -152.4190295152514,
        "alt_km": 710.4650697728257,
        "timestamp": "2025-12-07T07:31:35.960801+00:00",
        "meta_object_name": "LANDSAT 9",
        "meta_object_id": "2021-088A",
        "meta_epoch": "2025-12-06T22:08:26.318976",
        "meta_mean_motion": 14.57121107,
        "meta_eccentricity": 0.00011036,
        "meta_inclination": 98.2101,
        "meta_ra_of_asc_node": 49.1177,
        "meta_arg_of_pericenter": 94.1258,
        "meta_mean_anomaly": 266.0067,
        "meta_ephemeris_type": 0,
        "meta_classification_type": "U",
        "meta_norad_cat_id": 49260,
        "meta_element_set_no": 999,
        "meta_rev_at_epoch": 22300,
        "meta_bstar": 0.00019842217,
        "meta_mean_motion_dot": 8.49e-06,
        "meta_mean_motion_ddot": 0,
        "tle_line1": "1 49260U 21088A   25340.92252684  .00000849  00000+0  19842-3 0  9999",
        "tle_line2": "2 49260  98.2101  49.1177 0001103  94.1258 266.0067 14.57121107223000"
      },
      "geometry": {
        "type": "Point",
        "coordinates": [
          -152.4190295152514,
          -68.85795097834495
        ]
      }
    }
  ]
}